OBJECT_NAME,OBJECT_ID,EPOCH,MEAN_MOTION,ECCENTRICITY,INCLINATION,RA_OF_ASC_NODE,ARG_OF_PERICENTER,MEAN_ANOMALY,EPHEMERIS_TYPE,CLASSIFICATION_TYPE,NORAD_CAT_ID,ELEMENT_SET_NO,REV_AT_EPOCH,BSTAR,MEAN_MOTION_DOT,MEAN_MOTION_DDOT
TEVEL2-9,2025-052AD,2026-05-21T05:40:31.784736,15.30978788,.00045194,97.3961,36.6291,222.4473,137.6419,0,U,63237,999,6590,.36678778E-3,.10909E-3,0
TEVEL2-7,2025-052AE,2026-05-21T03:24:00.977472,15.30703398,.00046306,97.3966,36.4618,223.0280,137.0600,0,U,63238,999,6588,.34757322E-3,.10244E-3,0
TEVEL2-8,2025-052AF,2026-05-20T15:02:22.925472,15.30674326,.00045004,97.3970,35.9266,226.4390,133.6478,0,U,63239,999,6580,.35988396E-3,.10601E-3,0
HADES-ICM,2025-052BN,2026-05-21T06:23:48.972192,16.26141053,.00120822,97.3646,46.2798,212.8267,147.2276,0,U,63492,999,6656,.20834391E-2,.6532167E-1,.2459581E-5
FORESAIL-1 PRIME,2025-276DS,2026-05-21T04:16:03.853632,15.18419941,.00025838,97.4202,214.9476,162.6215,197.5108,0,U,66778,999,2630,.15412482E-3,.3104E-4,0
