TEVEL2-9                
1 63237U 25052AD  26141.23647899  .00010909  00000+0  36679-3 0  9999
2 63237  97.3961  36.6291 0004519 222.4473 137.6419 15.30978788 65905
TEVEL2-7                
1 63238U 25052AE  26141.14167798  .00010244  00000+0  34757-3 0  9992
2 63238  97.3966  36.4618 0004630 223.0280 137.0600 15.30703398 65885
TEVEL2-8                
1 63239U 25052AF  26140.62665423  .00010601  00000+0  35988-3 0  9997
2 63239  97.3970  35.9266 0004500 226.4390 133.6478 15.30674326 65804
HADES-ICM               
1 63492U 25052BN  26141.26653903  .06532167  24596-5  20834-2 0  9996
2 63492  97.3646  46.2798 0012082 212.8267 147.2276 16.26141053 66569
FORESAIL-1 PRIME        
1 66778U 25276DS  26141.17782238  .00003104  00000+0  15412-3 0  9991
2 66778  97.4202 214.9476 0002583 162.6215 197.5108 15.18419941 26309
